STARLINK-1063
1 14768C 19074BH  21326.15883502  .00005122  00000-0  34323-3 0  3268
2 14768  53.0540  68.0305 0001208  80.4967 148.7153 15.06385898    18
